{
  "norad_id": 53877,
  "name": "YUNHAI-1 03",
  "history": [
    {
      "epoch": "2026-03-28T22:37:27.208128Z",
      "apogee_km": 785.4085642750215,
      "perigee_km": 780.2944727146541,
      "latitude_deg": 6.261781802788587e-05,
      "longitude_deg": -78.60595639574387,
      "height_km": 784.9324628437578,
      "semi_major_axis_km": 7160.988518494838,
      "eccentricity": 0.00035708,
      "inclination_deg": 98.5546,
      "raan_deg": 87.1133,
      "arg_perigee_deg": 289.6472,
      "mean_anomaly_deg": 70.4327,
      "mean_motion_rev_day": 14.32660529
    },
    {
      "epoch": "2026-03-29T05:19:43.976064Z",
      "apogee_km": 785.4000937166638,
      "perigee_km": 780.3014704158322,
      "latitude_deg": -8.556389551283456e-05,
      "longitude_deg": -179.17535104361534,
      "height_km": 784.9829329781496,
      "semi_major_axis_km": 7160.987782066248,
      "eccentricity": 0.000356,
      "inclination_deg": 98.5546,
      "raan_deg": 87.3891,
      "arg_perigee_deg": 288.4922,
      "mean_anomaly_deg": 71.5874,
      "mean_motion_rev_day": 14.3266075
    },
    {
      "epoch": "2026-03-30T03:07:08.440320Z",
      "apogee_km": 785.384649938338,
      "perigee_km": 780.3103763123372,
      "latitude_deg": -3.9222184043606376e-05,
      "longitude_deg": -146.02598062990558,
      "height_km": 785.136704613975,
      "semi_major_axis_km": 7160.984513125338,
      "eccentricity": 0.0003543,
      "inclination_deg": 98.5546,
      "raan_deg": 88.2853,
      "arg_perigee_deg": 284.8821,
      "mean_anomaly_deg": 75.197,
      "mean_motion_rev_day": 14.32661731
    },
    {
      "epoch": "2026-03-30T06:28:16.823424Z",
      "apogee_km": 785.3825114075571,
      "perigee_km": 780.3119616893418,
      "latitude_deg": 1.7385785867179613e-05,
      "longitude_deg": 163.6893062163847,
      "height_km": 785.1575030990356,
      "semi_major_axis_km": 7160.984236548449,
      "eccentricity": 0.00035404,
      "inclination_deg": 98.5546,
      "raan_deg": 88.4232,
      "arg_perigee_deg": 284.4011,
      "mean_anomaly_deg": 75.678,
      "mean_motion_rev_day": 14.32661814
    },
    {
      "epoch": "2026-03-30T13:10:33.573216Z",
      "apogee_km": 785.3741956849863,
      "perigee_km": 780.3186845959144,
      "latitude_deg": 4.07898517797921e-06,
      "longitude_deg": 63.11996742724874,
      "height_km": 785.2106342398284,
      "semi_major_axis_km": 7160.98344014045,
      "eccentricity": 0.00035299,
      "inclination_deg": 98.5541,
      "raan_deg": 88.699,
      "arg_perigee_deg": 283.1869,
      "mean_anomaly_deg": 76.8921,
      "mean_motion_rev_day": 14.32662053
    },
    {
      "epoch": "2026-03-30T23:13:58.685376Z",
      "apogee_km": 785.3671485880423,
      "perigee_km": 780.3232391699612,
      "latitude_deg": 6.726773795289601e-05,
      "longitude_deg": -87.73410085479733,
      "height_km": 785.2836141700942,
      "semi_major_axis_km": 7160.982193879002,
      "eccentricity": 0.00035218,
      "inclination_deg": 98.5546,
      "raan_deg": 89.1126,
      "arg_perigee_deg": 281.4916,
      "mean_anomaly_deg": 78.5873,
      "mean_motion_rev_day": 14.32662427
    },
    {
      "epoch": "2026-03-31T21:01:23.079648Z",
      "apogee_km": 785.360248480988,
      "perigee_km": 780.3246477330795,
      "latitude_deg": 1.7873413889561204e-05,
      "longitude_deg": -54.58432299683958,
      "height_km": 785.4343547034791,
      "semi_major_axis_km": 7160.979448107034,
      "eccentricity": 0.0003516,
      "inclination_deg": 98.5541,
      "raan_deg": 90.0089,
      "arg_perigee_deg": 277.9683,
      "mean_anomaly_deg": 82.1102,
      "mean_motion_rev_day": 14.32663251
    },
    {
      "epoch": "2026-04-01T20:29:21.611040Z",
      "apogee_km": 785.3538551757019,
      "perigee_km": 780.3268490745095,
      "latitude_deg": 3.7898027048091626e-05,
      "longitude_deg": -46.57673056762342,
      "height_km": 785.6069444669286,
      "semi_major_axis_km": 7160.977352125105,
      "eccentricity": 0.000351,
      "inclination_deg": 98.5547,
      "raan_deg": 90.9741,
      "arg_perigee_deg": 273.9782,
      "mean_anomaly_deg": 86.1001,
      "mean_motion_rev_day": 14.3266388
    },
    {
      "epoch": "2026-04-02T19:57:20.082816Z",
      "apogee_km": 785.3391608748052,
      "perigee_km": 780.3350721621828,
      "latitude_deg": 4.7835003476454176e-05,
      "longitude_deg": -38.56888801418173,
      "height_km": 785.779839651449,
      "semi_major_axis_km": 7160.974116518494,
      "eccentricity": 0.0003494,
      "inclination_deg": 98.5542,
      "raan_deg": 91.9393,
      "arg_perigee_deg": 269.9609,
      "mean_anomaly_deg": 90.1175,
      "mean_motion_rev_day": 14.32664851
    },
    {
      "epoch": "2026-04-02T23:18:28.397664Z",
      "apogee_km": 785.3365426623641,
      "perigee_km": 780.3328852869427,
      "latitude_deg": -5.828763284998579e-05,
      "longitude_deg": -88.85329170530187,
      "height_km": 785.8045630372269,
      "semi_major_axis_km": 7160.9717139746535,
      "eccentricity": 0.00034937,
      "inclination_deg": 98.5542,
      "raan_deg": 92.0772,
      "arg_perigee_deg": 269.34,
      "mean_anomaly_deg": 90.7383,
      "mean_motion_rev_day": 14.32665572
    },
    {
      "epoch": "2026-04-03T21:05:52.645056Z",
      "apogee_km": 785.3343635267229,
      "perigee_km": 780.328846471828,
      "latitude_deg": -5.751001575359334e-05,
      "longitude_deg": -55.703008991495615,
      "height_km": 785.961094071662,
      "semi_major_axis_km": 7160.968604999275,
      "eccentricity": 0.0003495,
      "inclination_deg": 98.5542,
      "raan_deg": 92.9734,
      "arg_perigee_deg": 265.6821,
      "mean_anomaly_deg": 94.3963,
      "mean_motion_rev_day": 14.32666505
    },
    {
      "epoch": "2026-04-04T07:09:17.642304Z",
      "apogee_km": 785.3358614543031,
      "perigee_km": 780.3251892574608,
      "latitude_deg": -1.0441474996604445e-05,
      "longitude_deg": 153.44350447300909,
      "height_km": 786.0254634290562,
      "semi_major_axis_km": 7160.967525355882,
      "eccentricity": 0.00034986,
      "inclination_deg": 98.5543,
      "raan_deg": 93.3871,
      "arg_perigee_deg": 264.1839,
      "mean_anomaly_deg": 95.8946,
      "mean_motion_rev_day": 14.32666829
    },
    {
      "epoch": "2026-04-05T15:00:06.817824Z",
      "apogee_km": 785.3422608871479,
      "perigee_km": 780.3135448937419,
      "latitude_deg": -1.1485681309945943e-06,
      "longitude_deg": 35.74069375975297,
      "height_km": 786.248028578482,
      "semi_major_axis_km": 7160.964902890445,
      "eccentricity": 0.00035112,
      "inclination_deg": 98.5543,
      "raan_deg": 94.6971,
      "arg_perigee_deg": 259.0164,
      "mean_anomaly_deg": 101.0625,
      "mean_motion_rev_day": 14.32667616
    },
    {
      "epoch": "2026-04-05T21:42:23.469984Z",
      "apogee_km": 785.3440520352797,
      "perigee_km": 780.3098943621217,
      "latitude_deg": -1.0933137765934384e-05,
      "longitude_deg": -64.82833846592337,
      "height_km": 786.2941030246809,
      "semi_major_axis_km": 7160.9639731987,
      "eccentricity": 0.0003515,
      "inclination_deg": 98.5543,
      "raan_deg": 94.9728,
      "arg_perigee_deg": 257.9365,
      "mean_anomaly_deg": 102.1425,
      "mean_motion_rev_day": 14.32667895
    },
    {
      "epoch": "2026-04-06T06:05:14.280000Z",
      "apogee_km": 785.3457635321593,
      "perigee_km": 780.307023250035,
      "latitude_deg": 4.646766122666855e-06,
      "longitude_deg": 169.46056357502795,
      "height_km": 786.3543992101462,
      "semi_major_axis_km": 7160.963393391097,
      "eccentricity": 0.00035182,
      "inclination_deg": 98.5544,
      "raan_deg": 95.3176,
      "arg_perigee_deg": 256.5279,
      "mean_anomaly_deg": 103.5513,
      "mean_motion_rev_day": 14.32668069
    },
    {
      "epoch": "2026-04-07T13:56:03.308640Z",
      "apogee_km": 785.3601256292704,
      "perigee_km": 780.2850103642404,
      "latitude_deg": 2.4139217303541054e-05,
      "longitude_deg": 51.758363243627436,
      "height_km": 786.5831769748062,
      "semi_major_axis_km": 7160.959567996755,
      "eccentricity": 0.00035436,
      "inclination_deg": 98.5544,
      "raan_deg": 96.6276,
      "arg_perigee_deg": 251.1571,
      "mean_anomaly_deg": 108.9229,
      "mean_motion_rev_day": 14.32669217
    },
    {
      "epoch": "2026-04-07T20:38:19.946976Z",
      "apogee_km": 785.36426196706,
      "perigee_km": 780.2799809908092,
      "latitude_deg": -7.039200134515068e-05,
      "longitude_deg": -48.81059886314365,
      "height_km": 786.6309608583686,
      "semi_major_axis_km": 7160.959121478934,
      "eccentricity": 0.000355,
      "inclination_deg": 98.5544,
      "raan_deg": 96.9033,
      "arg_perigee_deg": 250.04,
      "mean_anomaly_deg": 110.0401,
      "mean_motion_rev_day": 14.32669351
    },
    {
      "epoch": "2026-04-08T15:04:35.652288Z",
      "apogee_km": 785.3729970456834,
      "perigee_km": 780.2680936307634,
      "latitude_deg": 4.36144879403581e-06,
      "longitude_deg": 34.625139536481434,
      "height_km": 786.756510149379,
      "semi_major_axis_km": 7160.957545338223,
      "eccentricity": 0.00035644,
      "inclination_deg": 98.5544,
      "raan_deg": 97.6617,
      "arg_perigee_deg": 247.0577,
      "mean_anomaly_deg": 113.0231,
      "mean_motion_rev_day": 14.32669824
    },
    {
      "epoch": "2026-04-09T21:14:50.402976Z",
      "apogee_km": 785.3932344335471,
      "perigee_km": 780.240212134272,
      "latitude_deg": -5.216877983839914e-06,
      "longitude_deg": -57.934393205988556,
      "height_km": 786.9666978502515,
      "semi_major_axis_km": 7160.953723283909,
      "eccentricity": 0.0003598,
      "inclination_deg": 98.5544,
      "raan_deg": 98.9027,
      "arg_perigee_deg": 242.0144,
      "mean_anomaly_deg": 118.0676,
      "mean_motion_rev_day": 14.32670971
    }
  ]
}